NORAD_CAT_ID,OBJECT_NAME,OBJECT_TYPE,EPOCH,MEAN_MOTION,ECCENTRICITY,INCLINATION,RA_OF_ASC_NODE,ARG_OF_PERICENTER,MEAN_ANOMALY,BSTAR,MEAN_MOTION_DOT,MEAN_MOTION_DDOT,TLE_LINE0,TLE_LINE1,TLE_LINE2,SEMIMAJOR_AXIS,PERIOD,APOGEE,PERIGEE,DECAYED
53838.0,STARLINK-4773,PAYLOAD,2023-08-16 03:36:42,15.08727801,0.0001972,53.2169,178.5734,90.1175,270.0043,0.0016138,0.0002541,0.0,0 STARLINK-4773,1 53838U 22114W   23228.15048856  .00025410  00000-0  16138-2 0  9994,2 53838  53.2169 178.5734 0001972  90.1175 270.0043 15.08727801 51047,6918.223,95.445,541.453,538.724,0.0
53838.0,STARLINK-4773,PAYLOAD,2023-08-17 01:52:04,15.08836807,0.000162,53.2166,174.4126,98.0379,262.0797,3.4958e-05,2.68e-06,0.0,0 STARLINK-4773,1 53838U 22114W   23229.07783413  .00000268  00000-0  34958-4 0  9997,2 53838  53.2166 174.4126 0001620  98.0379 262.0797 15.08836807 51186,6917.89,95.438,540.876,538.634,0.0
53838.0,STARLINK-4773,PAYLOAD,2023-08-18 03:18:15,15.08839201,0.000136,53.2166,169.6545,92.3725,267.7423,1.6619e-05,-2.3e-07,0.0,0 STARLINK-4773,1 53838U 22114W   23230.13767719 -.00000023  00000-0  16619-4 0  9991,2 53838  53.2166 169.6545 0001360  92.3725 267.7423 15.08839201 51347,6917.883,95.438,540.689,538.807,0.0
53838.0,STARLINK-4773,PAYLOAD,2023-08-19 04:44:25,15.08845943,0.0001416,53.217,164.8965,91.5358,268.5796,0.00010633,1.405e-05,0.0,0 STARLINK-4773,1 53838U 22114W   23231.19751181  .00001405  00000-0  10633-3 0  9997,2 53838  53.2170 164.8965 0001416  91.5358 268.5796 15.08845943 51500,6917.862,95.437,540.707,538.748,0.0
53838.0,STARLINK-4773,PAYLOAD,2023-08-19 19:02:53,15.0883861,0.0001744,53.2169,162.2213,87.6681,272.4511,5.8516e-05,6.43e-06,0.0,0 STARLINK-4773,1 53838U 22114W   23231.79368027  .00000643  00000-0  58516-4 0  9992,2 53838  53.2169 162.2213 0001744  87.6681 272.4511 15.08838610 51596,6917.885,95.438,540.956,538.543,0.0
53838.0,STARLINK-4773,PAYLOAD,2023-08-21 01:15:13,15.08844441,0.0001555,53.2169,156.5693,83.0856,277.0313,2.2749e-05,7.4e-07,0.0,0 STARLINK-4773,1 53838U 22114W   23233.05223838  .00000074  00000-0  22749-4 0  9990,2 53838  53.2169 156.5693 0001555  83.0856 277.0313 15.08844441 51789,6917.867,95.437,540.808,538.656,0.0
53838.0,STARLINK-4773,PAYLOAD,2023-08-21 04:25:59,15.08849478,0.0001513,53.2172,155.9738,80.9636,279.1527,6.6565e-05,7.72e-06,0.0,0 STARLINK-4773,1 53838U 22114W   23233.18471370  .00000772  00000-0  66565-4 0  9999,2 53838  53.2172 155.9738 0001513  80.9636 279.1527 15.08849478 51800,6917.851,95.437,540.763,538.67,0.0
53838.0,STARLINK-4773,PAYLOAD,2023-08-22 04:16:46,15.08844904,0.0001421,53.2167,151.5137,92.8499,267.2656,6.3151e-05,7.17e-06,0.0,0 STARLINK-4773,1 53838U 22114W   23234.17831577  .00000717  00000-0  63151-4 0  9995,2 53838  53.2167 151.5137 0001421  92.8499 267.2656 15.08844904 51952,6917.865,95.437,540.713,538.747,0.0
53838.0,STARLINK-4773,PAYLOAD,2023-08-23 00:56:47,15.08840904,0.0001507,53.2165,147.6462,92.6817,267.4348,5.5063e-06,-2e-06,0.0,0 STARLINK-4773,1 53838U 22114W   23235.03943974 -.00000200  00000-0  55063-5 0  9998,2 53838  53.2165 147.6462 0001507  92.6817 267.4348 15.08840904 52085,6917.878,95.437,540.785,538.7,0.0
53838.0,STARLINK-4773,PAYLOAD,2023-08-24 00:47:35,15.08836421,0.0001363,53.217,143.1855,64.0741,296.0391,-2.5261e-05,-6.9e-06,0.0,0 STARLINK-4773,1 53838U 22114W   23236.03304549 -.00000690  00000-0 -25261-4 0  9998,2 53838  53.2170 143.1855 0001363  64.0741 296.0391 15.08836421 52778,6917.891,95.438,540.699,538.813,0.0
53838.0,STARLINK-4773,PAYLOAD,2023-08-24 23:02:58,15.0884043,0.0001422,53.217,139.0228,72.6974,287.4174,4.5538e-05,4.37e-06,0.0,0 STARLINK-4773,1 53838U 22114W   23236.96040201  .00000437  00000-0  45538-4 0  9998,2 53838  53.2170 139.0228 0001422  72.6974 287.4174 15.08840430 52379,6917.879,95.438,540.728,538.76,0.0
53838.0,STARLINK-4773,PAYLOAD,2023-08-25 18:07:36,15.08838005,0.0001267,53.2171,135.458,83.5272,276.5865,4.313e-05,3.99e-06,0.0,0 STARLINK-4773,1 53838U 22114W   23237.75528494  .00000399  00000-0  43130-4 0  9994,2 53838  53.2171 135.4580 0001267  83.5272 276.5865 15.08838005 53035,6917.886,95.438,540.628,538.875,0.0
53838.0,STARLINK-4773,PAYLOAD,2023-08-26 02:04:32,15.08839061,0.0001385,53.2171,133.9703,81.8861,278.2288,6.361e-05,7.25e-06,0.0,0 STARLINK-4773,1 53838U 22114W   23238.08648423  .00000725  00000-0  63610-4 0  9994,2 53838  53.2171 133.9703 0001385  81.8861 278.2288 15.08839061 52547,6917.883,95.438,540.706,538.79,0.0
53838.0,STARLINK-4773,PAYLOAD,2023-08-26 03:39:55,15.08839764,0.0001374,53.217,133.6726,82.8357,277.2792,6.7809e-05,7.91e-06,0.0,0 STARLINK-4773,1 53838U 22114W   23238.15272361  .00000791  00000-0  67809-4 0  9993,2 53838  53.2170 133.6726 0001374  82.8357 277.2792 15.08839764 53097,6917.881,95.438,540.697,538.796,0.0
53838.0,STARLINK-4773,PAYLOAD,2023-08-26 21:09:10,15.08833552,0.0001513,53.2172,130.4012,82.573,277.5435,3.2014e-06,-2.37e-06,0.0,0 STARLINK-4773,1 53838U 22114W   23238.88137124 -.00000237  00000-0  32014-5 0  9997,2 53838  53.2172 130.4012 0001513  82.5730 277.5435 15.08833552 53208,6917.9,95.438,540.812,538.718,0.0
53838.0,STARLINK-4773,PAYLOAD,2023-08-27 01:55:19,15.08841772,0.0001582,53.2173,129.5088,82.3453,277.7719,6.9811e-05,8.23e-06,0.0,0 STARLINK-4773,1 53838U 22114W   23239.08008451  .00000823  00000-0  69811-4 0  9994,2 53838  53.2173 129.5088 0001582  82.3453 277.7719 15.08841772 53230,6917.875,95.437,540.834,538.646,0.0
53838.0,STARLINK-4773,PAYLOAD,2023-08-27 20:59:57,15.08838226,0.0001582,53.2171,125.9425,85.8281,274.2892,3.5807e-05,2.82e-06,0.0,0 STARLINK-4773,1 53838U 22114W   23239.87496846  .00000282  00000-0  35807-4 0  9997,2 53838  53.2171 125.9425 0001582  85.8281 274.2892 15.08838226 53357,6917.886,95.438,540.845,538.656,0.0
53838.0,STARLINK-4773,PAYLOAD,2023-08-28 01:46:06,15.08843264,0.00015,53.217,125.0495,84.4204,275.6959,7.5407e-05,9.12e-06,0.0,0 STARLINK-4773,1 53838U 22114W   23240.07368417  .00000912  00000-0  75407-4 0  9993,2 53838  53.2170 125.0495 0001500  84.4204 275.6959 15.08843264 52844,6917.87,95.437,540.773,538.698,0.0
53838.0,STARLINK-4773,PAYLOAD,2023-08-28 09:43:02,15.08835931,0.0001446,53.2167,123.5625,83.2213,276.8944,-9.0327e-06,-4.32e-06,0.0,0 STARLINK-4773,1 53838U 22114W   23240.40489096 -.00000432  00000-0 -90327-5 0  9995,2 53838  53.2167 123.5625 0001446  83.2213 276.8944 15.08835931 52898,6917.893,95.438,540.758,538.757,0.0
53838.0,STARLINK-4773,PAYLOAD,2023-08-28 20:50:44,15.08839257,0.0001462,53.2169,121.4813,84.3683,275.7476,-2.715e-06,-3.31e-06,0.0,0 STARLINK-4773,1 53838U 22114W   23240.86857068 -.00000331  00000-0 -27150-5 0  9995,2 53838  53.2169 121.4813 0001462  84.3683 275.7476 15.08839257 53509,6917.883,95.438,540.759,538.736,0.0
53838.0,STARLINK-4773,PAYLOAD,2023-08-29 01:36:53,15.08844835,0.0001382,53.2167,120.5881,91.0569,269.0581,4.1813e-05,3.78e-06,0.0,0 STARLINK-4773,1 53838U 22114W   23241.06728515  .00000378  00000-0  41813-4 0  9992,2 53838  53.2167 120.5881 0001382  91.0569 269.0581 15.08844835 52994,6917.866,95.437,540.687,538.775,0.0
53838.0,STARLINK-4773,PAYLOAD,2023-08-29 09:33:49,15.08839498,0.0001371,53.2168,119.102,90.9566,269.1583,1.2932e-05,-8.2e-07,0.0,0 STARLINK-4773,1 53838U 22114W   23241.39848910 -.00000082  00000-0  12932-4 0  9993,2 53838  53.2168 119.1020 0001371  90.9566 269.1583 15.08839498 53046,6917.882,95.438,540.695,538.798,0.0
53838.0,STARLINK-4773,PAYLOAD,2023-08-29 20:41:31,15.08839692,0.0001338,53.2167,117.0212,84.4231,275.6913,-8.0031e-06,-4.15e-06,0.0,0 STARLINK-4773,1 53838U 22114W   23241.86217089 -.00000415  00000-0 -80031-5 0  9999,2 53838  53.2167 117.0212 0001338  84.4231 275.6913 15.08839692 53657,6917.881,95.438,540.672,538.821,0.0
53838.0,STARLINK-4773,PAYLOAD,2023-08-29 23:52:17,15.088448,0.0001344,53.2169,116.4262,87.8131,272.3015,2.6297e-05,1.31e-06,0.0,0 STARLINK-4773,1 53838U 22114W   23241.99464643  .00000131  00000-0  26297-4 0  9999,2 53838  53.2169 116.4262 0001344  87.8131 272.3015 15.08844800 53676,6917.866,95.437,540.66,538.801,0.0
53838.0,STARLINK-4773,PAYLOAD,2023-08-31 01:18:27,15.08840399,0.0001233,53.2172,111.669,85.7804,274.3329,-7.7251e-06,-4.11e-06,0.0,0 STARLINK-4773,1 53838U 22114W   23243.05449043 -.00000411  00000-0 -77251-5 0  9995,2 53838  53.2172 111.6690 0001233  85.7804 274.3329 15.08840399 53290,6917.879,95.438,540.597,538.891,0.0
53838.0,STARLINK-4773,PAYLOAD,2023-09-01 07:30:47,15.0883765,0.0001126,53.2159,106.0205,94.5364,265.5757,-2.6526e-05,-7.1e-06,0.0,0 STARLINK-4773,1 53838U 22114W   23244.31305316 -.00000710  00000-0 -26526-4 0  9999,2 53838  53.2159 106.0205 0001126  94.5364 265.5757 15.08837650 53489,6917.888,95.438,540.532,538.974,0.0
53838.0,STARLINK-4773,PAYLOAD,2023-09-01 21:49:15,15.0883973,0.0001138,53.2169,103.3402,79.715,280.397,2.0835e-05,4.4e-07,0.0,0 STARLINK-4773,1 53838U 22114W   23244.90921053  .00000044  00000-0  20835-4 0  9991,2 53838  53.2169 103.3402 0001138  79.7150 280.3970 15.08839730 54114,6917.881,95.438,540.533,538.959,0.0
53838.0,STARLINK-4773,PAYLOAD,2023-09-02 01:00:01,15.08843832,0.0001284,53.2174,102.7464,92.5346,267.5793,4.9997e-05,5.08e-06,0.0,0 STARLINK-4773,1 53838U 22114W   23245.04168690  .00000508  00000-0  49997-4 0  9992,2 53838  53.2174 102.7464 0001284  92.5346 267.5793 15.08843832 53592,6917.869,95.437,540.622,538.845,0.0
53838.0,STARLINK-4773,PAYLOAD,2023-09-02 18:29:17,15.08831923,0.0001349,53.2174,99.4746,84.9693,275.1453,2.4157e-06,-2.49e-06,0.0,0 STARLINK-4773,1 53838U 22114W   23245.77033829 -.00000249  00000-0  24157-5 0  9992,2 53838  53.2174  99.4746 0001349  84.9693 275.1453 15.08831923 54248,6917.905,95.438,540.703,538.837,0.0
53838.0,STARLINK-4773,PAYLOAD,2023-09-03 00:50:49,15.08836694,0.0001281,53.2176,98.2856,81.7213,278.3924,4.4461e-05,4.2e-06,0.0,0 STARLINK-4773,1 53838U 22114W   23246.03529494  .00000420  00000-0  44461-4 0  9999,2 53838  53.2176  98.2856 0001281  81.7213 278.3924 15.08836694 53749,6917.89,95.438,540.642,538.869,0.0
